TISAT 1                 
1 36799U 10035E   26068.75703561  .00024554  00000+0  91005-3 0  9996
2 36799  98.0645   6.8512 0001343 159.3030 200.8262 15.27628633852505
STARLINK-30863          
1 59027U 24038E   26068.30243000 -.00000680  00000+0 -15180-4 0  9998
2 59027  43.0016  29.6402 0001015 236.7513 123.3241 15.27577328114588
